{"type": "FeatureCollection", "features": [ {"type": "Feature", "properties": {"norad_id": 44622, "name": "GAOFEN-10R", "group": "resource", "lat": -60.99705530022966, "lon": -54.351150618061, "alt_km": 629.9367574126563, "timestamp": "2025-12-09T09:46:47.304828+00:00", "meta": {"OBJECT_NAME": "GAOFEN-10R", "OBJECT_ID": "2019-066A", "EPOCH": "2025-12-08T22:43:19.526592", "MEAN_MOTION": 14.82770916, "ECCENTRICITY": 0.00080421, "INCLINATION": 98.0276, "RA_OF_ASC_NODE": 290.4383, "ARG_OF_PERICENTER": 52.4367, "MEAN_ANOMALY": 307.7575, "EPHEMERIS_TYPE": 0, "CLASSIFICATION_TYPE": "U", "NORAD_CAT_ID": 44622, "ELEMENT_SET_NO": 999, "REV_AT_EPOCH": 33418, "BSTAR": 0.00031185974, "MEAN_MOTION_DOT": 2.467e-05, "MEAN_MOTION_DDOT": 0}, "tle": {"line1": "1 44622U 19066A   25342.94675378  .00002467  00000+0  31186-3 0  9995", "line2": "2 44622  98.0276 290.4383 0008042  52.4367 307.7575 14.82770916334180"}}, "geometry": {"type": "Point", "coordinates": [-54.351150618061, -60.99705530022966]}}, {"type": "Feature", "properties": {"norad_id": 44804, "name": "CARTOSAT-3", "group": "resource", "lat": 23.968874527491014, "lon": 39.69396664806413, "alt_km": 504.58738706364056, "timestamp": "2025-12-09T09:46:47.304839+00:00", "meta": {"OBJECT_NAME": "CARTOSAT-3", "OBJECT_ID": "2019-081A", "EPOCH": "2025-12-09T04:55:54.204672", "MEAN_MOTION": 15.19321445, "ECCENTRICITY": 0.0013972, "INCLINATION": 97.4584, "RA_OF_ASC_NODE": 42.8334, "ARG_OF_PERICENTER": 98.034, "MEAN_ANOMALY": 262.248, "EPHEMERIS_TYPE": 0, "CLASSIFICATION_TYPE": "U", "NORAD_CAT_ID": 44804, "ELEMENT_SET_NO": 999, "REV_AT_EPOCH": 33462, "BSTAR": 0.000178, "MEAN_MOTION_DOT": 3.699e-05, "MEAN_MOTION_DDOT": 0}, "tle": {"line1": "1 44804U 19081A   25343.20548848  .00003699  00000+0  17800-3 0  9990", "line2": "2 44804  97.4584  42.8334 0013972  98.0340 262.2480 15.19321445334626"}}, "geometry": {"type": "Point", "coordinates": [39.69396664806413, 23.968874527491014]}}, {"type": "Feature", "properties": {"norad_id": 44819, "name": "GAOFEN-12 01", "group": "resource", "lat": -50.12851896271451, "lon": 160.31495759692336, "alt_km": 633.4345008774217, "timestamp": "2025-12-09T09:46:47.304850+00:00", "meta": {"OBJECT_NAME": "GAOFEN-12 01", "OBJECT_ID": "2019-082A", "EPOCH": "2025-12-09T03:52:30.825696", "MEAN_MOTION": 14.80650386, "ECCENTRICITY": 0.0001197, "INCLINATION": 97.8127, "RA_OF_ASC_NODE": 349.5364, "ARG_OF_PERICENTER": 257.07, "MEAN_ANOMALY": 103.0379, "EPHEMERIS_TYPE": 0, "CLASSIFICATION_TYPE": "U", "NORAD_CAT_ID": 44819, "ELEMENT_SET_NO": 999, "REV_AT_EPOCH": 32597, "BSTAR": 0.0001102, "MEAN_MOTION_DOT": 7.96e-06, "MEAN_MOTION_DDOT": 0}, "tle": {"line1": "1 44819U 19082A   25343.16146789  .00000796  00000+0  11020-3 0  9993", "line2": "2 44819  97.8127 349.5364 0001197 257.0700 103.0379 14.80650386325975"}}, "geometry": {"type": "Point", "coordinates": [160.31495759692336, -50.12851896271451]}}, {"type": "Feature", "properties": {"norad_id": 44873, "name": "CSG-1", "group": "resource", "lat": -36.14411622829124, "lon": 170.58845266531847, "alt_km": 629.4017396620065, "timestamp": "2025-12-09T09:46:47.304861+00:00", "meta": {"OBJECT_NAME": "CSG-1", "OBJECT_ID": "2019-092A", "EPOCH": "2025-12-09T03:27:48.124800", "MEAN_MOTION": 14.82155989, "ECCENTRICITY": 0.0001462, "INCLINATION": 97.8811, "RA_OF_ASC_NODE": 164.5226, "ARG_OF_PERICENTER": 85.6004, "MEAN_ANOMALY": 274.5376, "EPHEMERIS_TYPE": 0, "CLASSIFICATION_TYPE": "U", "NORAD_CAT_ID": 44873, "ELEMENT_SET_NO": 999, "REV_AT_EPOCH": 32332, "BSTAR": 0.00013174, "MEAN_MOTION_DOT": 9.97e-06, "MEAN_MOTION_DDOT": 0}, "tle": {"line1": "1 44873U 19092A   25343.14430700  .00000997  00000+0  13174-3 0  9996", "line2": "2 44873  97.8811 164.5226 0001462  85.6004 274.5376 14.82155989323323"}}, "geometry": {"type": "Point", "coordinates": [170.58845266531847, -36.14411622829124]}}, {"type": "Feature", "properties": {"norad_id": 46277, "name": "NEMO-HD", "group": "resource", "lat": 33.13190866400011, "lon": -132.7051169870803, "alt_km": 443.4460544214371, "timestamp": "2025-12-09T09:46:47.304871+00:00", "meta": {"OBJECT_NAME": "NEMO-HD", "OBJECT_ID": "2020-061F", "EPOCH": "2025-12-09T04:28:06.296736", "MEAN_MOTION": 15.40211648, "ECCENTRICITY": 0.0002093, "INCLINATION": 97.2211, "RA_OF_ASC_NODE": 42.3294, "ARG_OF_PERICENTER": 61.0067, "MEAN_ANOMALY": 299.1389, "EPHEMERIS_TYPE": 0, "CLASSIFICATION_TYPE": "U", "NORAD_CAT_ID": 46277, "ELEMENT_SET_NO": 999, "REV_AT_EPOCH": 29269, "BSTAR": 0.00032349, "MEAN_MOTION_DOT": 0.00012922, "MEAN_MOTION_DDOT": 0}, "tle": {"line1": "1 46277U 20061F   25343.18618399  .00012922  00000+0  32349-3 0  9996", "line2": "2 46277  97.2211  42.3294 0002093  61.0067 299.1389 15.40211648292699"}}, "geometry": {"type": "Point", "coordinates": [-132.7051169870803, 33.13190866400011]}}, {"type": "Feature", "properties": {"norad_id": 46984, "name": "SENTINEL-6A", "group": "resource", "lat": -31.163716051121796, "lon": 4.829221633607049, "alt_km": 1339.2866932217494, "timestamp": "2025-12-09T09:46:47.304882+00:00", "meta": {"OBJECT_NAME": "SENTINEL-6A", "OBJECT_ID": "2020-086A", "EPOCH": "2025-12-08T21:25:14.032128", "MEAN_MOTION": 12.80930456, "ECCENTRICITY": 0.0007737, "INCLINATION": 66.0391, "RA_OF_ASC_NODE": 170.2992, "ARG_OF_PERICENTER": 269.2247, "MEAN_ANOMALY": 90.7882, "EPHEMERIS_TYPE": 0, "CLASSIFICATION_TYPE": "U", "NORAD_CAT_ID": 46984, "ELEMENT_SET_NO": 999, "REV_AT_EPOCH": 23595, "BSTAR": 4.1436e-05, "MEAN_MOTION_DOT": -5.1e-07, "MEAN_MOTION_DDOT": 0}, "tle": {"line1": "1 46984U 20086A   25342.89252352 -.00000051  00000+0  41436-4 0  9997", "line2": "2 46984  66.0391 170.2992 0007737 269.2247  90.7882 12.80930456235950"}}, "geometry": {"type": "Point", "coordinates": [4.829221633607049, -31.163716051121796]}}, {"type": "Feature", "properties": {"norad_id": 48079, "name": "GAOFEN-12 02", "group": "resource", "lat": -60.79955255218964, "lon": 142.88416196697702, "alt_km": 636.0756428899513, "timestamp": "2025-12-09T09:46:47.304892+00:00", "meta": {"OBJECT_NAME": "GAOFEN-12 02", "OBJECT_ID": "2021-026A", "EPOCH": "2025-12-09T05:26:51.815040", "MEAN_MOTION": 14.80668117, "ECCENTRICITY": 0.0003463, "INCLINATION": 97.985, "RA_OF_ASC_NODE": 337.2504, "ARG_OF_PERICENTER": 107.8954, "MEAN_ANOMALY": 252.2635, "EPHEMERIS_TYPE": 0, "CLASSIFICATION_TYPE": "U", "NORAD_CAT_ID": 48079, "ELEMENT_SET_NO": 999, "REV_AT_EPOCH": 25365, "BSTAR": 0.00011317, "MEAN_MOTION_DOT": 8.17e-06, "MEAN_MOTION_DDOT": 0}, "tle": {"line1": "1 48079U 21026A   25343.22698860  .00000817  00000+0  11317-3 0  9998", "line2": "2 48079  97.9850 337.2504 0003463 107.8954 252.2635 14.80668117253650"}}, "geometry": {"type": "Point", "coordinates": [142.88416196697702, -60.79955255218964]}}, {"type": "Feature", "properties": {"norad_id": 48268, "name": "PLEIADES NEO 3", "group": "resource", "lat": -62.253090745038065, "lon": 71.19146882629765, "alt_km": 632.0877747210034, "timestamp": "2025-12-09T09:46:47.304903+00:00", "meta": {"OBJECT_NAME": "PLEIADES NEO 3", "OBJECT_ID": "2021-034A", "EPOCH": "2025-12-08T17:51:26.688096", "MEAN_MOTION": 14.81674889, "ECCENTRICITY": 0.00013213, "INCLINATION": 97.8951, "RA_OF_ASC_NODE": 55.2426, "ARG_OF_PERICENTER": 96.866, "MEAN_ANOMALY": 263.2703, "EPHEMERIS_TYPE": 0, "CLASSIFICATION_TYPE": "U", "NORAD_CAT_ID": 48268, "ELEMENT_SET_NO": 999, "REV_AT_EPOCH": 24945, "BSTAR": 2.6372942e-05, "MEAN_MOTION_DOT": 1.55e-06, "MEAN_MOTION_DDOT": 0}, "tle": {"line1": "1 48268U 21034A   25342.74405889  .00000155  00000+0  26373-4 0  9994", "line2": "2 48268  97.8951  55.2426 0001321  96.8660 263.2703 14.81674889249458"}}, "geometry": {"type": "Point", "coordinates": [71.19146882629765, -62.253090745038065]}}, {"type": "Feature", "properties": {"norad_id": 49070, "name": "PLEIADES NEO 4", "group": "resource", "lat": 62.07408468061689, "lon": -108.93091371920612, "alt_km": 617.1561467361234, "timestamp": "2025-12-09T09:46:47.304913+00:00", "meta": {"OBJECT_NAME": "PLEIADES NEO 4", "OBJECT_ID": "2021-073E", "EPOCH": "2025-12-09T01:09:02.258784", "MEAN_MOTION": 14.81675673, "ECCENTRICITY": 0.0001374, "INCLINATION": 97.8951, "RA_OF_ASC_NODE": 55.5378, "ARG_OF_PERICENTER": 89.2903, "MEAN_ANOMALY": 270.8468, "EPHEMERIS_TYPE": 0, "CLASSIFICATION_TYPE": "U", "NORAD_CAT_ID": 49070, "ELEMENT_SET_NO": 999, "REV_AT_EPOCH": 23321, "BSTAR": 0.00011585, "MEAN_MOTION_DOT": 8.6e-06, "MEAN_MOTION_DDOT": 0}, "tle": {"line1": "1 49070U 21073E   25343.04794281  .00000860  00000+0  11585-3 0  9991", "line2": "2 49070  97.8951  55.5378 0001374  89.2903 270.8468 14.81675673233214"}}, "geometry": {"type": "Point", "coordinates": [-108.93091371920612, 62.07408468061689]}}, {"type": "Feature", "properties": {"norad_id": 49260, "name": "LANDSAT 9", "group": "resource", "lat": 66.22740703171404, "lon": 32.43396712216371, "alt_km": 695.3019142079647, "timestamp": "2025-12-09T09:46:47.304923+00:00", "meta": {"OBJECT_NAME": "LANDSAT 9", "OBJECT_ID": "2021-088A", "EPOCH": "2025-12-09T04:31:35.407200", "MEAN_MOTION": 14.57124253, "ECCENTRICITY": 0.000111, "INCLINATION": 98.2098, "RA_OF_ASC_NODE": 51.3511, "ARG_OF_PERICENTER": 94.4976, "MEAN_ANOMALY": 265.6349, "EPHEMERIS_TYPE": 0, "CLASSIFICATION_TYPE": "U", "NORAD_CAT_ID": 49260, "ELEMENT_SET_NO": 999, "REV_AT_EPOCH": 22333, "BSTAR": 0.00016197, "MEAN_MOTION_DOT": 6.85e-06, "MEAN_MOTION_DDOT": 0}, "tle": {"line1": "1 49260U 21088A   25343.18860425  .00000685  00000+0  16197-3 0  9996", "line2": "2 49260  98.2098  51.3511 0001110  94.4976 265.6349 14.57124253223339"}}, "geometry": {"type": "Point", "coordinates": [32.43396712216371, 66.22740703171404]}}]}